[{"OBJECT_NAME":"STARLINK-35979","OBJECT_ID":"2025-278U","EPOCH":"2026-01-11T00:00:02.000160","MEAN_MOTION":15.27584495,"ECCENTRICITY":0.00015373,"INCLINATION":43,"RA_OF_ASC_NODE":80.5234,"ARG_OF_PERICENTER":267.5452,"MEAN_ANOMALY":35.0101,"EPHEMERIS_TYPE":0,"CLASSIFICATION_TYPE":"U","NORAD_CAT_ID":66809,"ELEMENT_SET_NO":999,"REV_AT_EPOCH":600,"BSTAR":0.0011830893,"MEAN_MOTION_DOT":0.00032442,"MEAN_MOTION_DDOT":0},{"OBJECT_NAME":"STARLINK-36046","OBJECT_ID":"2025-278V","EPOCH":"2026-01-11T00:00:02.000160","MEAN_MOTION":15.27538503,"ECCENTRICITY":0.00011619,"INCLINATION":43,"RA_OF_ASC_NODE":80.3243,"ARG_OF_PERICENTER":256.8995,"MEAN_ANOMALY":130.6209,"EPHEMERIS_TYPE":0,"CLASSIFICATION_TYPE":"U","NORAD_CAT_ID":66810,"ELEMENT_SET_NO":999,"REV_AT_EPOCH":606,"BSTAR":0.00075368619,"MEAN_MOTION_DOT":0.00020509,"MEAN_MOTION_DDOT":0},{"OBJECT_NAME":"STARLINK-36045","OBJECT_ID":"2025-278W","EPOCH":"2026-01-08T06:05:17.257344","MEAN_MOTION":15.40679878,"ECCENTRICITY":6.99e-5,"INCLINATION":42.9977,"RA_OF_ASC_NODE":95.8979,"ARG_OF_PERICENTER":167.104,"MEAN_ANOMALY":192.9835,"EPHEMERIS_TYPE":0,"CLASSIFICATION_TYPE":"U","NORAD_CAT_ID":66811,"ELEMENT_SET_NO":999,"REV_AT_EPOCH":596,"BSTAR":0.0004176,"MEAN_MOTION_DOT":0.00017168,"MEAN_MOTION_DDOT":0},{"OBJECT_NAME":"STARLINK-36054","OBJECT_ID":"2025-278X","EPOCH":"2026-01-11T00:00:02.000160","MEAN_MOTION":15.28410293,"ECCENTRICITY":0.00015443,"INCLINATION":43.0012,"RA_OF_ASC_NODE":80.2245,"ARG_OF_PERICENTER":258.8972,"MEAN_ANOMALY":168.5322,"EPHEMERIS_TYPE":0,"CLASSIFICATION_TYPE":"U","NORAD_CAT_ID":66812,"ELEMENT_SET_NO":999,"REV_AT_EPOCH":600,"BSTAR":0.00066657974,"MEAN_MOTION_DOT":0.00018598,"MEAN_MOTION_DDOT":0},{"OBJECT_NAME":"STARLINK-36042","OBJECT_ID":"2025-278Y","EPOCH":"2026-01-09T09:43:06.907584","MEAN_MOTION":15.40393268,"ECCENTRICITY":0.00038924,"INCLINATION":43.0003,"RA_OF_ASC_NODE":89.0511,"ARG_OF_PERICENTER":307.9931,"MEAN_ANOMALY":52.0573,"EPHEMERIS_TYPE":0,"CLASSIFICATION_TYPE":"U","NORAD_CAT_ID":66813,"ELEMENT_SET_NO":999,"REV_AT_EPOCH":614,"BSTAR":-0.0042573949,"MEAN_MOTION_DOT":-0.00172484,"MEAN_MOTION_DDOT":0},{"OBJECT_NAME":"STARLINK-35984","OBJECT_ID":"2025-278Z","EPOCH":"2026-01-08T12:38:01.795488","MEAN_MOTION":15.40746486,"ECCENTRICITY":0.00014028,"INCLINATION":42.9974,"RA_OF_ASC_NODE":94.5035,"ARG_OF_PERICENTER":269.7178,"MEAN_ANOMALY":90.3518,"EPHEMERIS_TYPE":0,"CLASSIFICATION_TYPE":"U","NORAD_CAT_ID":66814,"ELEMENT_SET_NO":999,"REV_AT_EPOCH":600,"BSTAR":0.0014099305,"MEAN_MOTION_DOT":0.00059142,"MEAN_MOTION_DDOT":0},{"OBJECT_NAME":"STARLINK-35985","OBJECT_ID":"2025-278AA","EPOCH":"2026-01-11T00:00:02.000160","MEAN_MOTION":15.27591695,"ECCENTRICITY":0.00015463,"INCLINATION":43.0013,"RA_OF_ASC_NODE":80.128,"ARG_OF_PERICENTER":267.0719,"MEAN_ANOMALY":198.2014,"EPHEMERIS_TYPE":0,"CLASSIFICATION_TYPE":"U","NORAD_CAT_ID":66815,"ELEMENT_SET_NO":999,"REV_AT_EPOCH":610,"BSTAR":0.00089232874,"MEAN_MOTION_DOT":0.00024383,"MEAN_MOTION_DDOT":0},{"OBJECT_NAME":"STARLINK-36098","OBJECT_ID":"2025-278AB","EPOCH":"2026-01-08T22:43:06.896640","MEAN_MOTION":15.40742697,"ECCENTRICITY":0.00018424,"INCLINATION":43.0002,"RA_OF_ASC_NODE":91.6314,"ARG_OF_PERICENTER":279.4898,"MEAN_ANOMALY":80.575,"EPHEMERIS_TYPE":0,"CLASSIFICATION_TYPE":"U","NORAD_CAT_ID":66816,"ELEMENT_SET_NO":999,"REV_AT_EPOCH":607,"BSTAR":0.0010504929,"MEAN_MOTION_DOT":0.00043894,"MEAN_MOTION_DDOT":0},{"OBJECT_NAME":"STARLINK-35995","OBJECT_ID":"2025-278AC","EPOCH":"2026-01-11T00:00:02.000160","MEAN_MOTION":15.31519086,"ECCENTRICITY":6.472e-5,"INCLINATION":43.0014,"RA_OF_ASC_NODE":80.1006,"ARG_OF_PERICENTER":271.1289,"MEAN_ANOMALY":209.0536,"EPHEMERIS_TYPE":0,"CLASSIFICATION_TYPE":"U","NORAD_CAT_ID":66817,"ELEMENT_SET_NO":999,"REV_AT_EPOCH":610,"BSTAR":-0.085780894,"MEAN_MOTION_DOT":-0.02365449,"MEAN_MOTION_DDOT":0},{"OBJECT_NAME":"STARLINK-35994","OBJECT_ID":"2025-278AD","EPOCH":"2026-01-09T21:31:22.231776","MEAN_MOTION":15.40768686,"ECCENTRICITY":9.781e-5,"INCLINATION":42.9988,"RA_OF_ASC_NODE":86.7317,"ARG_OF_PERICENTER":314.54,"MEAN_ANOMALY":45.5377,"EPHEMERIS_TYPE":0,"CLASSIFICATION_TYPE":"U","NORAD_CAT_ID":66818,"ELEMENT_SET_NO":999,"REV_AT_EPOCH":621,"BSTAR":0.0010695223,"MEAN_MOTION_DOT":0.00044737,"MEAN_MOTION_DDOT":0},{"OBJECT_NAME":"STARLINK-35989","OBJECT_ID":"2025-278AE","EPOCH":"2026-01-11T00:00:02.000160","MEAN_MOTION":15.28398472,"ECCENTRICITY":0.00016187,"INCLINATION":43.0013,"RA_OF_ASC_NODE":80.2374,"ARG_OF_PERICENTER":267.7008,"MEAN_ANOMALY":152.6794,"EPHEMERIS_TYPE":0,"CLASSIFICATION_TYPE":"U","NORAD_CAT_ID":66819,"ELEMENT_SET_NO":999,"REV_AT_EPOCH":600,"BSTAR":0.0013136209,"MEAN_MOTION_DOT":0.00036986,"MEAN_MOTION_DDOT":0},{"OBJECT_NAME":"STARLINK-35966","OBJECT_ID":"2025-280A","EPOCH":"2026-01-11T00:00:02.000160","MEAN_MOTION":14.99152922,"ECCENTRICITY":0.00033127,"INCLINATION":69.9995,"RA_OF_ASC_NODE":120.1493,"ARG_OF_PERICENTER":270.829,"MEAN_ANOMALY":273.0337,"EPHEMERIS_TYPE":0,"CLASSIFICATION_TYPE":"U","NORAD_CAT_ID":66821,"ELEMENT_SET_NO":999,"REV_AT_EPOCH":607,"BSTAR":-0.0020385862,"MEAN_MOTION_DOT":-0.00024855,"MEAN_MOTION_DDOT":0},{"OBJECT_NAME":"STARLINK-35958","OBJECT_ID":"2025-280B","EPOCH":"2026-01-11T00:00:02.000160","MEAN_MOTION":14.99155398,"ECCENTRICITY":0.00026117,"INCLINATION":69.9997,"RA_OF_ASC_NODE":119.9127,"ARG_OF_PERICENTER":277.4661,"MEAN_ANOMALY":118.2268,"EPHEMERIS_TYPE":0,"CLASSIFICATION_TYPE":"U","NORAD_CAT_ID":66822,"ELEMENT_SET_NO":999,"REV_AT_EPOCH":602,"BSTAR":-0.0018588798,"MEAN_MOTION_DOT":-0.0002268,"MEAN_MOTION_DDOT":0},{"OBJECT_NAME":"STARLINK-35957","OBJECT_ID":"2025-280C","EPOCH":"2026-01-11T00:00:02.000160","MEAN_MOTION":14.99149709,"ECCENTRICITY":0.00031527,"INCLINATION":69.9996,"RA_OF_ASC_NODE":119.8074,"ARG_OF_PERICENTER":276.8614,"MEAN_ANOMALY":211.8368,"EPHEMERIS_TYPE":0,"CLASSIFICATION_TYPE":"U","NORAD_CAT_ID":66823,"ELEMENT_SET_NO":999,"REV_AT_EPOCH":607,"BSTAR":-0.0018605838,"MEAN_MOTION_DOT":-0.00022698,"MEAN_MOTION_DDOT":0},{"OBJECT_NAME":"STARLINK-35896","OBJECT_ID":"2025-280D","EPOCH":"2026-01-11T00:00:02.000160","MEAN_MOTION":14.99152653,"ECCENTRICITY":0.00031555,"INCLINATION":69.9996,"RA_OF_ASC_NODE":120.088,"ARG_OF_PERICENTER":272.9297,"MEAN_ANOMALY":325.8503,"EPHEMERIS_TYPE":0,"CLASSIFICATION_TYPE":"U","NORAD_CAT_ID":66824,"ELEMENT_SET_NO":999,"REV_AT_EPOCH":607,"BSTAR":-0.001989291,"MEAN_MOTION_DOT":-0.00024258,"MEAN_MOTION_DDOT":0},{"OBJECT_NAME":"STARLINK-35476","OBJECT_ID":"2025-280E","EPOCH":"2026-01-11T00:00:02.000160","MEAN_MOTION":14.99145928,"ECCENTRICITY":0.0003306,"INCLINATION":69.9996,"RA_OF_ASC_NODE":120.0839,"ARG_OF_PERICENTER":269.0816,"MEAN_ANOMALY":333.1037,"EPHEMERIS_TYPE":0,"CLASSIFICATION_TYPE":"U","NORAD_CAT_ID":66825,"ELEMENT_SET_NO":999,"REV_AT_EPOCH":603,"BSTAR":-0.0018741262,"MEAN_MOTION_DOT":-0.0002286,"MEAN_MOTION_DDOT":0}]
