STARLINK-35979          
1 66809U 25278U   26011.00002315  .00032442  00000+0  11831-2 0  9994
2 66809  43.0000  80.5234 0001537 267.5452  35.0101 15.27584495  6003
STARLINK-36046          
1 66810U 25278V   26011.00002315  .00020509  00000+0  75369-3 0  9994
2 66810  43.0000  80.3243 0001161 256.8995 130.6209 15.27538503  6065
STARLINK-36045          
1 66811U 25278W   26008.25367196  .00017168  00000+0  41760-3 0  9994
2 66811  42.9977  95.8979 0000699 167.1040 192.9835 15.40679878  5964
STARLINK-36054          
1 66812U 25278X   26011.00002315  .00018598  00000+0  66658-3 0  9992
2 66812  43.0012  80.2245 0001544 258.8972 168.5322 15.28410293  6009
STARLINK-36042          
1 66813U 25278Y   26009.40494106 -.00172484  00000+0 -42574-2 0  9994
2 66813  43.0003  89.0511 0003892 307.9931  52.0573 15.40393268  6148
STARLINK-35984          
1 66814U 25278Z   26008.52640967  .00059142  00000+0  14099-2 0  9999
2 66814  42.9974  94.5035 0001402 269.7178  90.3518 15.40746486  6002
STARLINK-35985          
1 66815U 25278AA  26011.00002315  .00024383  00000+0  89233-3 0  9998
2 66815  43.0013  80.1280 0001546 267.0719 198.2014 15.27591695  6108
STARLINK-36098          
1 66816U 25278AB  26008.94660760  .00043894  00000+0  10505-2 0  9995
2 66816  43.0002  91.6314 0001842 279.4898  80.5750 15.40742697  6077
STARLINK-35995          
1 66817U 25278AC  26011.00002315 -.02365449  00000+0 -85781-1 0  9997
2 66817  43.0014  80.1006 0000647 271.1289 209.0536 15.31519086  6105
STARLINK-35994          
1 66818U 25278AD  26009.89678509  .00044737  00000+0  10695-2 0  9999
2 66818  42.9988  86.7317 0000978 314.5400  45.5377 15.40768686  6215
STARLINK-35989          
1 66819U 25278AE  26011.00002315  .00036986  00000+0  13136-2 0  9992
2 66819  43.0013  80.2374 0001618 267.7008 152.6794 15.28398472  6002
STARLINK-35966          
1 66821U 25280A   26011.00002315 -.00024855  00000+0 -20386-2 0  9997
2 66821  69.9995 120.1493 0003312 270.8290 273.0337 14.99152922  6071
STARLINK-35958          
1 66822U 25280B   26011.00002315 -.00022680  00000+0 -18589-2 0  9994
2 66822  69.9997 119.9127 0002611 277.4661 118.2268 14.99155398  6028
STARLINK-35957          
1 66823U 25280C   26011.00002315 -.00022698  00000+0 -18606-2 0  9994
2 66823  69.9996 119.8074 0003152 276.8614 211.8368 14.99149709  6075
STARLINK-35896          
1 66824U 25280D   26011.00002315 -.00024258  00000+0 -19893-2 0  9998
2 66824  69.9996 120.0880 0003155 272.9297 325.8503 14.99152653  6071
STARLINK-35476          
1 66825U 25280E   26011.00002315 -.00022860  00000+0 -18741-2 0  9997
2 66825  69.9996 120.0839 0003306 269.0816 333.1037 14.99145928  6035
